KUZGTU 1 (RS47S)        
1 57217U 23091AV  26161.49304715  .00010805  00000+0  37716-3 0  9996
2 57217  97.5070 225.9053 0012369 118.6664 241.5821 15.29706460163352
SONATE-2                
1 59112U 24043Q   26161.33229084  .00039539  00000+0  52300-3 0  9999
2 59112  97.5521 311.3113 0006720 218.8804 141.1969 15.58207311126821
MESAT1                  
1 60209U 24125G   26161.57539963  .00047193  00000+0  52925-3 0  9993
2 60209  97.2316  18.9106 0008924 228.8461 131.2028 15.62487131108538
OOV-CUBE (TUBSAT-30)    
1 60240U 24128F   26161.60113742  .00001981  00000+0  16003-3 0  9990
2 60240  61.9950 248.5377 0045443 132.2861 228.2097 15.02746418105120
COLIBRI-S (RS67S)       
1 61746U 24199M   26161.59593414  .00019217  00000+0  37589-3 0  9999
2 61746  97.3009  35.3916 0006417 310.7609  49.3083 15.47450701136398
HORS 3 (RS81S)          
1 61753U 24199U   26161.58899067  .00031905  00000+0  48454-3 0  9990
2 61753  97.2992  37.3007 0004024 318.2409  41.8538 15.54515538136538
HORS 4 (RS82S)          
1 61754U 24199V   26161.63334631  .00047909  00000+0  61299-3 0  9991
2 61754  97.2941  38.5056 0003089 304.0243  56.0720 15.59072972136625
ARCTICSAT 1 (RS74S)     
1 61762U 24199AD  26161.52165523  .01204176  10017-2  10263-2 0  9998
2 61762  97.2858  45.3165 0010294 204.0714 156.0092 16.13658022137054
SIT-2086                
1 61764U 24199AF  26161.62366780  .00033780  00000+0  54884-3 0  9995
2 61764  97.2949  37.8354 0004384 288.1783  71.8992 15.52632623133415
HYPERVIEW 1G (RS66S)    
1 61772U 24199AP  26161.58203978  .00069962  00000+0  48810-3 0  9991
2 61772  97.2897  40.9753 0002263 260.7408  99.3601 15.74115316133633
ALTAIR (RS65S)          
1 61779U 24199AW  26161.60146155  .00010387  00000+0  28945-3 0  9998
2 61779  97.3046  30.9964 0011751 337.5895  22.4835 15.36900415136106
ASRTU-1 (AO-123)        
1 61781U 24199AY  26161.58363089  .00006947  00000+0  20268-3 0  9992
2 61781  97.3016  30.3144 0012967 339.9674  20.1060 15.35580188132911
SAMSAT-IONOSPHERE (RS7*)
1 61784U 24199BB  26161.63399816  .00040383  00000+0  55759-3 0  9993
2 61784  97.2963  37.3697 0006152 311.2492  48.8233 15.57052607136540
RTU MIREA 1 (RS51S)     
1 61785U 24199BC  26161.60853516  .00048229  00000+0  58718-3 0  9998
2 61785  97.2952  38.1420 0005543 303.5639  56.5089 15.60372024133445
TEVEL2-4                
1 63213U 25052D   26160.68297184  .00017103  00000+0  51594-3 0  9997
2 63213  97.3918  57.0647 0004528 116.3023 243.8685 15.34347478 68969
TEVEL2-5                
1 63214U 25052E   26161.22442351  .00017598  00000+0  53329-3 0  9993
2 63214  97.3913  57.5550 0004507 117.7852 242.3848 15.34197759 69045
TEVEL2-6                
1 63215U 25052F   26161.62793760  .00015829  00000+0  48042-3 0  9992
2 63215  97.3920  57.9437 0004502 117.4748 242.6953 15.34172180 69106
TEVEL2-1                
1 63217U 25052H   26161.45896437  .00016982  00000+0  52380-3 0  9991
2 63217  97.3892  57.4069 0004352 126.5292 233.6352 15.33643468 69069
TEVEL2-3                
1 63218U 25052J   26161.45384750  .00014599  00000+0  45005-3 0  9990
2 63218  97.3880  57.4231 0004594 125.5277 234.6394 15.33693057 69064
TEVEL2-2                
1 63219U 25052K   26161.26357561  .00017570  00000+0  54175-3 0  9990
2 63219  97.3890  57.2137 0004337 128.0186 232.1449 15.33646958 69030
TEVEL2-9                
1 63237U 25052AD  26161.62407326  .00013811  00000+0  45314-3 0  9994
2 63237  97.3953  56.9633 0007199 149.0429 211.1238 15.31695500 69026
TEVEL2-7                
1 63238U 25052AE  26161.59839001  .00014018  00000+0  46406-3 0  9993
2 63238  97.3954  56.8565 0007293 149.8573 210.3089 15.31404254 69012
TEVEL2-8                
1 63239U 25052AF  26160.69177181  .00014112  00000+0  46777-3 0  9994
2 63239  97.3952  55.9294 0007169 153.0566 207.1049 15.31361975 68876
INNOSAT 16 (RS92S7)     
1 64878U 25155C   26161.57346325  .00005066  00000+0  20336-3 0  9995
2 64878  97.4555 128.7226 0009751 199.1198 160.9675 15.25386694 79669
GEOSCAN 6 (RS92S6)      
1 64879U 25155D   26161.57640515  .00009250  00000+0  32059-3 0  9998
2 64879  97.4547 130.1032 0007453 184.6147 175.5026 15.30027624 79756
GEOSCAN 1 (RS92S1)      
1 64880U 25155E   26161.58140291  .00009901  00000+0  33683-3 0  9994
2 64880  97.4544 130.2504 0007404 184.2504 175.8675 15.30612449 79768
239ALFEROV (RS61S)      
1 64881U 25155F   26161.62568154  .00012725  00000+0  40415-3 0  9991
2 64881  97.4545 130.8344 0007110 180.4679 179.6558 15.32764171 79802
GEOSCAN 2 (RS92S2)      
1 64890U 25155Q   26161.57625650  .00009804  00000+0  33079-3 0  9992
2 64890  97.4543 130.3950 0007252 170.0561 190.0824 15.30884188 79778
GEOSCAN 5 (RS92S5)      
1 64891U 25155R   26161.61606722  .00012734  00000+0  40054-3 0  9994
2 64891  97.4537 130.9597 0005779 183.6508 176.4693 15.33082313 79818
GEOSCAN 4 (RS92S4)      
1 64892U 25155S   26161.60091118  .00013142  00000+0  41131-3 0  9992
2 64892  97.4541 130.9909 0005847 184.0070 176.1127 15.33232343 79815
