OBJECT_NAME,OBJECT_ID,EPOCH,MEAN_MOTION,ECCENTRICITY,INCLINATION,RA_OF_ASC_NODE,ARG_OF_PERICENTER,MEAN_ANOMALY,EPHEMERIS_TYPE,CLASSIFICATION_TYPE,NORAD_CAT_ID,ELEMENT_SET_NO,REV_AT_EPOCH,BSTAR,MEAN_MOTION_DOT,MEAN_MOTION_DDOT
KUZGTU 1 (RS47S),2023-091AV,2026-06-10T11:49:59.273760,15.29706460,.00123699,97.5070,225.9053,118.6664,241.5821,0,U,57217,999,16335,.37715658E-3,.10805E-3,0
SONATE-2,2024-043Q,2026-06-10T07:58:29.928576,15.58207311,.00067204,97.5521,311.3113,218.8804,141.1969,0,U,59112,999,12682,.52299602E-3,.39539E-3,0
MESAT1,2024-125G,2026-06-10T13:48:34.528032,15.62487131,.00089241,97.2316,18.9106,228.8461,131.2028,0,U,60209,999,10853,.52924694E-3,.47193E-3,0
OOV-CUBE (TUBSAT-30),2024-128F,2026-06-10T14:25:38.273088,15.02746418,.00454437,61.9950,248.5377,132.2861,228.2097,0,U,60240,999,10512,.16003491E-3,.1981E-4,0
COLIBRI-S (RS67S),2024-199M,2026-06-10T14:18:08.709696,15.47450701,.0006417,97.3009,35.3916,310.7609,49.3083,0,U,61746,999,13639,.37589381E-3,.19217E-3,0
HORS 3 (RS81S),2024-199U,2026-06-10T14:08:08.793888,15.54515538,.00040245,97.2992,37.3007,318.2409,41.8538,0,U,61753,999,13653,.48454341E-3,.31905E-3,0
HORS 4 (RS82S),2024-199V,2026-06-10T15:12:01.121184,15.59072972,.00030897,97.2941,38.5056,304.0243,56.0720,0,U,61754,999,13662,.61298655E-3,.47909E-3,0
ARCTICSAT 1 (RS74S),2024-199AD,2026-06-10T12:31:11.011872,16.13658022,.0010294,97.2858,45.3165,204.0714,156.0092,0,U,61762,999,13705,.10262923E-2,.1204176E-1,.10017286E-2
SIT-2086,2024-199AF,2026-06-10T14:58:04.897920,15.52632623,.00043848,97.2949,37.8354,288.1783,71.8992,0,U,61764,999,13341,.54883556E-3,.3378E-3,0
HYPERVIEW 1G (RS66S),2024-199AP,2026-06-10T13:58:08.236992,15.74115316,.00022637,97.2897,40.9753,260.7408,99.3601,0,U,61772,999,13363,.48810265E-3,.69962E-3,0
ALTAIR (RS65S),2024-199AW,2026-06-10T14:26:06.277920,15.36900415,.00117511,97.3046,30.9964,337.5895,22.4835,0,U,61779,999,13610,.28944527E-3,.10387E-3,0
ASRTU-1 (AO-123),2024-199AY,2026-06-10T14:00:25.708896,15.35580188,.00129676,97.3016,30.3144,339.9674,20.1060,0,U,61781,999,13291,.20267802E-3,.6947E-4,0
SAMSAT-IONOSPHERE (RS75S),2024-199BB,2026-06-10T15:12:57.441024,15.57052607,.00061528,97.2963,37.3697,311.2492,48.8233,0,U,61784,999,13654,.55759018E-3,.40383E-3,0
RTU MIREA 1 (RS51S),2024-199BC,2026-06-10T14:36:17.437824,15.60372024,.00055437,97.2952,38.1420,303.5639,56.5089,0,U,61785,999,13344,.58718346E-3,.48229E-3,0
TEVEL2-4,2025-052D,2026-06-09T16:23:28.766976,15.34347478,.00045286,97.3918,57.0647,116.3023,243.8685,0,U,63213,999,6896,.51593665E-3,.17103E-3,0
TEVEL2-5,2025-052E,2026-06-10T05:23:10.191264,15.34197759,.00045073,97.3913,57.5550,117.7852,242.3848,0,U,63214,999,6904,.53328732E-3,.17598E-3,0
TEVEL2-6,2025-052F,2026-06-10T15:04:13.808640,15.34172180,.00045027,97.3920,57.9437,117.4748,242.6953,0,U,63215,999,6910,.48042043E-3,.15829E-3,0
TEVEL2-1,2025-052H,2026-06-10T11:00:54.521568,15.33643468,.00043523,97.3892,57.4069,126.5292,233.6352,0,U,63217,999,6906,.52380106E-3,.16982E-3,0
TEVEL2-3,2025-052J,2026-06-10T10:53:32.424000,15.33693057,.00045943,97.3880,57.4231,125.5277,234.6394,0,U,63218,999,6906,.45004687E-3,.14599E-3,0
TEVEL2-2,2025-052K,2026-06-10T06:19:32.932704,15.33646958,.00043374,97.3890,57.2137,128.0186,232.1449,0,U,63219,999,6903,.54174536E-3,.1757E-3,0
TEVEL2-9,2025-052AD,2026-06-10T14:58:39.929664,15.31695500,.0007199,97.3953,56.9633,149.0429,211.1238,0,U,63237,999,6902,.45314206E-3,.13811E-3,0
TEVEL2-7,2025-052AE,2026-06-10T14:21:40.896864,15.31404254,.00072933,97.3954,56.8565,149.8573,210.3089,0,U,63238,999,6901,.46405865E-3,.14018E-3,0
TEVEL2-8,2025-052AF,2026-06-09T16:36:09.084384,15.31361975,.00071697,97.3952,55.9294,153.0566,207.1049,0,U,63239,999,6887,.467774E-3,.14112E-3,0
INNOSAT 16 (RS92S7),2025-155C,2026-06-10T13:45:47.224800,15.25386694,.0009751,97.4555,128.7226,199.1198,160.9675,0,U,64878,999,7966,.20336258E-3,.5066E-4,0
GEOSCAN 6 (RS92S6),2025-155D,2026-06-10T13:50:01.404960,15.30027624,.00074538,97.4547,130.1032,184.6147,175.5026,0,U,64879,999,7975,.32058699E-3,.925E-4,0
GEOSCAN 1 (RS92S1),2025-155E,2026-06-10T13:57:13.211424,15.30612449,.00074046,97.4544,130.2504,184.2504,175.8675,0,U,64880,999,7976,.33682981E-3,.9901E-4,0
239ALFEROV (RS61S),2025-155F,2026-06-10T15:00:58.885056,15.32764171,.00071101,97.4545,130.8344,180.4679,179.6558,0,U,64881,999,7980,.40414845E-3,.12725E-3,0
GEOSCAN 2 (RS92S2),2025-155Q,2026-06-10T13:49:48.561600,15.30884188,.00072521,97.4543,130.3950,170.0561,190.0824,0,U,64890,999,7977,.33078761E-3,.9804E-4,0
GEOSCAN 5 (RS92S5),2025-155R,2026-06-10T14:47:08.207808,15.33082313,.00057794,97.4537,130.9597,183.6508,176.4693,0,U,64891,999,7981,.40053704E-3,.12734E-3,0
GEOSCAN 4 (RS92S4),2025-155S,2026-06-10T14:25:18.725952,15.33232343,.00058475,97.4541,130.9909,184.0070,176.1127,0,U,64892,999,7981,.41131106E-3,.13142E-3,0
